IRIDIUM 7 [-]           
1 24793U 97020B   23241.65040305  .00000334  00000+0  11083-3 0  9993
2 24793  86.3912  92.3160 0002288  91.3322 268.8136 14.34874406377795
IRIDIUM 5 [-]           
1 24795U 97020D   23240.89340183  .00002597  00000+0  26438-3 0  9990
2 24795  86.3967  24.3930 0128105 322.3411  36.8893 14.84322467387514
IRIDIUM 4 [-]           
1 24796U 97020E   23241.07664144  .00000385  00000+0  12627-3 0  9996
2 24796  86.3905  89.8693 0002045  92.4660 267.6771 14.35777960378038
IRIDIUM 914 [-]         
1 24836U 97030A   23241.12174773  .00000394  00000+0  11982-3 0  9995
2 24836  86.3893 100.3781 0001334 148.2135 211.9145 14.39570455374513
IRIDIUM 16 [-]          
1 24841U 97030F   23241.71183919  .00000410  00000+0  13056-3 0  9991
2 24841  86.4032 121.3559 0004221  74.8298 285.3366 14.37470754372778
IRIDIUM 911 [-]         
1 24842U 97030G   23241.15683357  .00000521  00000+0  14058-3 0  9997
2 24842  86.4457 120.9554 0016057 124.1675 236.1053 14.45973487379929
IRIDIUM 17 [-]          
1 24870U 97034B   23241.14832776  .00000464  00000+0  15115-3 0  9993
2 24870  86.4017 151.2408 0003138  52.6551 307.4931 14.36571390369070
IRIDIUM 920 [-]         
1 24871U 97034C   23241.14918566  .00000456  00000+0  13765-3 0  9996
2 24871  86.3997 132.0288 0013845  90.4058 269.8727 14.40285938372082
